{
  "type": "FeatureCollection",
  "features": [
    {
      "type": "Feature",
      "properties": {
        "norad_id": 28051,
        "name": "IRS-P6 (RESOURCESAT-1)",
        "group": "resource",
        "lat": -10.593305001158798,
        "lon": -154.80128741203697,
        "alt_km": 730.4207595995467,
        "timestamp": "2025-12-12T07:43:20.159969+00:00",
        "meta_object_name": "IRS-P6 (RESOURCESAT-1)",
        "meta_object_id": "2003-046A",
        "meta_epoch": "2025-12-12T00:39:59.385024",
        "meta_mean_motion": 14.36074635,
        "meta_eccentricity": 0.00640682,
        "meta_inclination": 98.2178,
        "meta_ra_of_asc_node": 26.4671,
        "meta_arg_of_pericenter": 182.8031,
        "meta_mean_anomaly": 288.6617,
        "meta_ephemeris_type": 0,
        "meta_classification_type": "U",
        "meta_norad_cat_id": 28051,
        "meta_element_set_no": 999,
        "meta_rev_at_epoch": 15366,
        "meta_bstar": 0.00014654044,
        "meta_mean_motion_dot": 3.95e-06,
        "meta_mean_motion_ddot": 0,
        "tle_line1": "1 28051U 03046A   25346.02777066  .00000395  00000+0  14654-3 0  9993",
        "tle_line2": "2 28051  98.2178  26.4671 0064068 182.8031 288.6617 14.36074635153664"
      },
      "geometry": {
        "type": "Point",
        "coordinates": [
          -154.80128741203697,
          -10.593305001158798
        ]
      }
    },
    {
      "type": "Feature",
      "properties": {
        "norad_id": 28220,
        "name": "SHIYAN-1 (SY-1)",
        "group": "resource",
        "lat": -72.52677791809086,
        "lon": 73.98532103573712,
        "alt_km": 485.82723184864153,
        "timestamp": "2025-12-12T07:43:20.159981+00:00",
        "meta_object_name": "SHIYAN-1 (SY-1)",
        "meta_object_id": "2004-012A",
        "meta_epoch": "2025-12-11T10:02:42.167904",
        "meta_mean_motion": 15.28090216,
        "meta_eccentricity": 0.00056618,
        "meta_inclination": 97.8931,
        "meta_ra_of_asc_node": 46.8783,
        "meta_arg_of_pericenter": 331.221,
        "meta_mean_anomaly": 28.8715,
        "meta_ephemeris_type": 0,
        "meta_classification_type": "U",
        "meta_norad_cat_id": 28220,
        "meta_element_set_no": 999,
        "meta_rev_at_epoch": 18236,
        "meta_bstar": 0.00087047445,
        "meta_mean_motion_dot": 0.00023824,
        "meta_mean_motion_ddot": 0,
        "tle_line1": "1 28220U 04012A   25345.41854361  .00023824  00000+0  87047-3 0  9999",
        "tle_line2": "2 28220  97.8931  46.8783 0005661 331.2210  28.8715 15.28090216182364"
      },
      "geometry": {
        "type": "Point",
        "coordinates": [
          73.98532103573712,
          -72.52677791809086
        ]
      }
    },
    {
      "type": "Feature",
      "properties": {
        "norad_id": 28376,
        "name": "AURA",
        "group": "resource",
        "lat": 58.85365865678923,
        "lon": -77.46395886993487,
        "alt_km": 683.7007655962489,
        "timestamp": "2025-12-12T07:43:20.159992+00:00",
        "meta_object_name": "AURA",
        "meta_object_id": "2004-026A",
        "meta_epoch": "2025-12-11T23:13:49.671264",
        "meta_mean_motion": 14.60944021,
        "meta_eccentricity": 0.00012228,
        "meta_inclination": 98.3184,
        "meta_ra_of_asc_node": 296.1909,
        "meta_arg_of_pericenter": 94.0894,
        "meta_mean_anomaly": 266.0446,
        "meta_ephemeris_type": 0,
        "meta_classification_type": "U",
        "meta_norad_cat_id": 28376,
        "meta_element_set_no": 999,
        "meta_rev_at_epoch": 13887,
        "meta_bstar": 0.00037186347,
        "meta_mean_motion_dot": 1.774e-05,
        "meta_mean_motion_ddot": 0,
        "tle_line1": "1 28376U 04026A   25345.96793601  .00001774  00000+0  37186-3 0  9994",
        "tle_line2": "2 28376  98.3184 296.1909 0001222  94.0894 266.0446 14.60944021138874"
      },
      "geometry": {
        "type": "Point",
        "coordinates": [
          -77.46395886993487,
          58.85365865678923
        ]
      }
    },
    {
      "type": "Feature",
      "properties": {
        "norad_id": 28649,
        "name": "IRS-P5 (CARTOSAT-1)",
        "group": "resource",
        "lat": -48.20452291927631,
        "lon": -175.77832220843902,
        "alt_km": 604.429203500069,
        "timestamp": "2025-12-12T07:43:20.160004+00:00",
        "meta_object_name": "IRS-P5 (CARTOSAT-1)",
        "meta_object_id": "2005-017A",
        "meta_epoch": "2025-12-12T00:15:14.736672",
        "meta_mean_motion": 14.90400297,
        "meta_eccentricity": 0.0001255,
        "meta_inclination": 97.5498,
        "meta_ra_of_asc_node": 12.4561,
        "meta_arg_of_pericenter": 46.7059,
        "meta_mean_anomaly": 313.4264,
        "meta_ephemeris_type": 0,
        "meta_classification_type": "U",
        "meta_norad_cat_id": 28649,
        "meta_element_set_no": 999,
        "meta_rev_at_epoch": 11593,
        "meta_bstar": 0.00028648005,
        "meta_mean_motion_dot": 2.738e-05,
        "meta_mean_motion_ddot": 0,
        "tle_line1": "1 28649U 05017A   25346.01058723  .00002738  00000+0  28648-3 0  9998",
        "tle_line2": "2 28649  97.5498  12.4561 0001255  46.7059 313.4264 14.90400297115934"
      },
      "geometry": {
        "type": "Point",
        "coordinates": [
          -175.77832220843902,
          -48.20452291927631
        ]
      }
    },
    {
      "type": "Feature",
      "properties": {
        "norad_id": 28893,
        "name": "SINAH 1",
        "group": "resource",
        "lat": -78.47804653433636,
        "lon": -110.57183045852736,
        "alt_km": 693.7325521277398,
        "timestamp": "2025-12-12T07:43:20.160024+00:00",
        "meta_object_name": "SINAH 1",
        "meta_object_id": "2005-043D",
        "meta_epoch": "2025-12-11T23:58:08.652864",
        "meta_mean_motion": 14.6396133,
        "meta_eccentricity": 0.00152976,
        "meta_inclination": 98.2602,
        "meta_ra_of_asc_node": 114.5539,
        "meta_arg_of_pericenter": 139.1778,
        "meta_mean_anomaly": 221.0573,
        "meta_ephemeris_type": 0,
        "meta_classification_type": "U",
        "meta_norad_cat_id": 28893,
        "meta_element_set_no": 999,
        "meta_rev_at_epoch": 7313,
        "meta_bstar": 0.00016244136,
        "meta_mean_motion_dot": 8.03e-06,
        "meta_mean_motion_ddot": 0,
        "tle_line1": "1 28893U 05043D   25345.99871126  .00000803  00000+0  16244-3 0  9994",
        "tle_line2": "2 28893  98.2602 114.5539 0015297 139.1778 221.0573 14.63961330 73137"
      },
      "geometry": {
        "type": "Point",
        "coordinates": [
          -110.57183045852736,
          -78.47804653433636
        ]
      }
    },
    {
      "type": "Feature",
      "properties": {
        "norad_id": 29079,
        "name": "EROS B",
        "group": "resource",
        "lat": 64.54835358730162,
        "lon": -61.3957827833053,
        "alt_km": 359.51091318331964,
        "timestamp": "2025-12-12T07:43:20.160047+00:00",
        "meta_object_name": "EROS B",
        "meta_object_id": "2006-014A",
        "meta_epoch": "2025-12-11T23:34:40.751904",
        "meta_mean_motion": 15.67953513,
        "meta_eccentricity": 0.00020082,
        "meta_inclination": 97.3465,
        "meta_ra_of_asc_node": 102.5199,
        "meta_arg_of_pericenter": 300.6011,
        "meta_mean_anomaly": 59.5052,
        "meta_ephemeris_type": 0,
        "meta_classification_type": "U",
        "meta_norad_cat_id": 29079,
        "meta_element_set_no": 999,
        "meta_rev_at_epoch": 9068,
        "meta_bstar": 0.001736843,
        "meta_mean_motion_dot": 0.00195775,
        "meta_mean_motion_ddot": 0,
        "tle_line1": "1 29079U 06014A   25345.98241611  .00195775  00000+0  17368-2 0  9999",
        "tle_line2": "2 29079  97.3465 102.5199 0002008 300.6011  59.5052 15.67953513 90685"
      },
      "geometry": {
        "type": "Point",
        "coordinates": [
          -61.3957827833053,
          64.54835358730162
        ]
      }
    },
    {
      "type": "Feature",
      "properties": {
        "norad_id": 29228,
        "name": "RESURS-DK 1",
        "group": "resource",
        "lat": 60.544113663528464,
        "lon": -117.41614758702613,
        "alt_km": 527.4155074409473,
        "timestamp": "2025-12-12T07:43:20.160063+00:00",
        "meta_object_name": "RESURS-DK 1",
        "meta_object_id": "2006-021A",
        "meta_epoch": "2025-12-11T18:31:39.602496",
        "meta_mean_motion": 15.12152215,
        "meta_eccentricity": 0.00073324,
        "meta_inclination": 69.9332,
        "meta_ra_of_asc_node": 104.3392,
        "meta_arg_of_pericenter": 260.6216,
        "meta_mean_anomaly": 99.4121,
        "meta_ephemeris_type": 0,
        "meta_classification_type": "U",
        "meta_norad_cat_id": 29228,
        "meta_element_set_no": 999,
        "meta_rev_at_epoch": 7423,
        "meta_bstar": 0.00025315889,
        "meta_mean_motion_dot": 4.272e-05,
        "meta_mean_motion_ddot": 0,
        "tle_line1": "1 29228U 06021A   25345.77198614  .00004272  00000+0  25316-3 0  9998",
        "tle_line2": "2 29228  69.9332 104.3392 0007332 260.6216  99.4121 15.12152215 74234"
      },
      "geometry": {
        "type": "Point",
        "coordinates": [
          -117.41614758702613,
          60.544113663528464
        ]
      }
    }
  ]
}